GLOBALSTAR M068         
1 32266U 07048D   24210.45091205 -.00000086  00000+0  97049-4 0  9990
2 32266  51.9856 209.0915 0000922 144.4060  20.3105 12.62794960776651
GLOBALSTAR M079         
1 37188U 10054A   24210.87872852 -.00000104  00000+0 -25733-5 0  9994
2 37188  52.0048  43.9881 0000668  66.4330  41.0185 12.62261928635623
GLOBALSTAR M074         
1 37189U 10054B   24210.90150432 -.00000096  00000+0  40910-4 0  9994
2 37189  52.0026  43.2920 0000863  80.3196  10.2293 12.62270775636235
GLOBALSTAR M076         
1 37190U 10054C   24210.94054628 -.00000080  00000+0  13023-3 0  9997
2 37190  52.0038  43.3157 0001011  56.2223  91.4180 12.62254273636312
GLOBALSTAR M077         
1 37191U 10054D   24210.85056590 -.00000101  00000+0  16171-4 0  9990
2 37191  52.0094   0.3519 0000878  98.1340  60.9293 12.62261506636318
GLOBALSTAR M075         
1 37192U 10054E   24210.85985216 -.00000097  00000+0  38574-4 0  9992
2 37192  51.9949  85.9983 0000657  62.6597  18.4729 12.62262189635178
GLOBALSTAR M073         
1 37193U 10054F   24210.87706876 -.00000092  00000+0  65967-4 0  9999
2 37193  52.0085 359.5189 0000838  87.2990  71.1519 12.62267371637006
GLOBALSTAR M083         
1 37739U 11033A   24210.80923941 -.00000086  00000+0  96853-4 0  9991
2 37739  51.9873 308.8988 0000503 134.8802  16.7747 12.62262819606016
GLOBALSTAR M088         
1 37740U 11033B   24211.24301216 -.00000082  00000+0  12420-3 0  9990
2 37740  51.9704 213.3389 0000113 234.4077 209.6163 12.62265704601908
GLOBALSTAR M091         
1 37741U 11033C   24210.92853447 -.00000082  00000+0  12313-3 0  9994
2 37741  51.9977 177.2750 0000169 284.3356 108.3551 12.62265056602363
GLOBALSTAR M085         
1 37742U 11033D   24211.06912333 -.00000086  00000+0  98684-4 0  9991
2 37742  51.9865 128.1698 0000302  28.9838 344.3013 12.62263793603386
GLOBALSTAR M081         
1 37743U 11033E   24210.95170279 -.00000094  00000+0  53219-4 0  9998
2 37743  51.9954 131.1160 0000500   6.2958  72.5712 12.62267183603020
GLOBALSTAR M089         
1 37744U 11033F   24210.97711167 -.00000089  00000+0  83943-4 0  9999
2 37744  51.9931  85.3297 0001024  53.3388 319.5506 12.62266489604124
GLOBALSTAR M084         
1 38040U 11080A   24210.78678333 -.00000080  00000+0  13300-3 0  9997
2 38040  52.0022 313.0247 0000876  99.9466  68.8811 12.62264779581824
GLOBALSTAR M080         
1 38041U 11080B   24210.83521906 -.00000093  00000+0  62616-4 0  9996
2 38041  52.0078 314.3702 0000815  81.9562  67.3274 12.62263171581953
GLOBALSTAR M082         
1 38042U 11080C   24210.61189655 -.00000082  00000+0  12193-3 0  9996
2 38042  52.0067 270.4632 0000802 170.4218 343.4939 12.62264424582638
GLOBALSTAR M092         
1 38043U 11080D   24210.90553348 -.00000074  00000+0  16384-3 0  9990
2 38043  52.0106 359.9252 0000942  98.2082  70.8913 12.62264347581125
GLOBALSTAR M090         
1 38044U 11080E   24210.63459674 -.00000080  00000+0  13034-3 0  9994
2 38044  51.9874 264.6198 0000508 163.8109 332.9255 12.62265429582757
GLOBALSTAR M086         
1 38045U 11080F   24210.66190706 -.00000091  00000+0  69877-4 0  9995
2 38045  51.9885 265.0614 0000522 326.0526 175.6208 12.62264832582702
GLOBALSTAR M097         
1 39072U 13005A   24211.21198647 -.00000091  00000+0  71965-4 0  9990
2 39072  52.0028 177.6052 0000226 324.5437  35.5414 12.62269166530108
GLOBALSTAR M093         
1 39073U 13005B   24210.78913632 -.00000084  00000+0  10857-3 0  9995
2 39073  51.9792 172.7093 0000348 312.8186  47.2651 12.62276294529923
GLOBALSTAR M094         
1 39074U 13005C   24210.94754046 -.00000096  00000+0  41688-4 0  9996
2 39074  51.9962  86.2864 0000514  43.3737 316.7170 12.62266265531550
GLOBALSTAR M096         
1 39075U 13005D   24210.72325919 -.00000086  00000+0  10141-3 0  9994
2 39075  52.0068 135.2316 0000298 355.6915   4.3949 12.62267922530445
GLOBALSTAR M078         
1 39076U 13005E   24211.17201553 -.00000086  00000+0  10138-3 0  9998
2 39076  51.9843 218.8160 0001028 173.0904 186.9976 12.62273518529333
GLOBALSTAR M095         
1 39077U 13005F   24210.56471704 -.00000091  00000+0  71835-4 0  9996
2 39077  51.9770 218.0212 0000626 211.9701 148.1128 12.62262741528900
GLOBALSTAR M087         
1 52888U 22064A   24210.87879514 -.00000102  00000+0  49867-4 0  9994
2 52888  51.9763  63.0041 0010071 107.9031 252.2969 13.37579630103102
